1 99489U          22013.68438100  .00000000  00000-0  57534-2 0    06
2 99489  97.5121  83.3548 0000001  54.9139 307.0922 15.14117915    07
# 20220115.76-20220115.76, 32 measurements, 0.071 kHz rms
